[{"OBJECT_NAME":"STARLINK-5984","OBJECT_ID":"2023-058N","EPOCH":"2026-03-09T22:10:52.604544","MEAN_MOTION":15.05648411,"ECCENTRICITY":0.00018782,"INCLINATION":97.604,"RA_OF_ASC_NODE":71.4743,"ARG_OF_PERICENTER":71.1743,"MEAN_ANOMALY":288.9687,"EPHEMERIS_TYPE":0,"CLASSIFICATION_TYPE":"U","NORAD_CAT_ID":56329,"ELEMENT_SET_NO":999,"REV_AT_EPOCH":15823,"BSTAR":0.00013117499,"MEAN_MOTION_DOT":1.832e-5,"MEAN_MOTION_DDOT":0},{"OBJECT_NAME":"SL-8 R\/B","OBJECT_ID":"1981-003B","EPOCH":"2026-03-09T16:04:15.381408","MEAN_MOTION":15.1097362,"ECCENTRICITY":0.02621852,"INCLINATION":82.9386,"RA_OF_ASC_NODE":290.0424,"ARG_OF_PERICENTER":178.7086,"MEAN_ANOMALY":181.4887,"EPHEMERIS_TYPE":0,"CLASSIFICATION_TYPE":"U","NORAD_CAT_ID":12139,"ELEMENT_SET_NO":999,"REV_AT_EPOCH":31467,"BSTAR":0.00054115758,"MEAN_MOTION_DOT":0.00021105,"MEAN_MOTION_DDOT":0}]
